[{"OBJECT_NAME":"OBJECT D","OBJECT_ID":"2025-108D","EPOCH":"2026-03-09T23:55:58.918944","MEAN_MOTION":15.17741465,"ECCENTRICITY":0.00119931,"INCLINATION":97.4751,"RA_OF_ASC_NODE":145.8386,"ARG_OF_PERICENTER":357.4422,"MEAN_ANOMALY":2.6748,"EPHEMERIS_TYPE":0,"CLASSIFICATION_TYPE":"U","NORAD_CAT_ID":64090,"ELEMENT_SET_NO":999,"REV_AT_EPOCH":4431,"BSTAR":0.00035350679,"MEAN_MOTION_DOT":7.081e-5,"MEAN_MOTION_DDOT":0},{"OBJECT_NAME":"LEMUR-2-TEODOR","OBJECT_ID":"2025-276DG","EPOCH":"2026-03-09T22:32:17.371680","MEAN_MOTION":15.19870523,"ECCENTRICITY":0.00021641,"INCLINATION":97.4221,"RA_OF_ASC_NODE":144.2904,"ARG_OF_PERICENTER":115.2922,"MEAN_ANOMALY":244.8537,"EPHEMERIS_TYPE":0,"CLASSIFICATION_TYPE":"U","NORAD_CAT_ID":66768,"ELEMENT_SET_NO":999,"REV_AT_EPOCH":1536,"BSTAR":0.00038251651,"MEAN_MOTION_DOT":8.143e-5,"MEAN_MOTION_DDOT":0}]
